KUIPER-00027            
1 63740U 25088S   26024.42824411  .00005075  00000+0  69538-3 0  9993
2 63740  51.8997 291.3046 0004421  44.6877 315.4441 14.79866835 41063
KUIPER-00028            
1 63741U 25088T   26023.77163284  .00004208  00000+0  58016-3 0  9991
2 63741  51.9005 292.1947 0004741  38.3027 321.8272 14.79969550 41405
KUIPER-00029            
1 63742U 25088U   26024.02670610  .00009748  00000+0  13022-2 0  9998
2 63742  51.9011 289.1198 0000859  48.3589 311.7446 14.80051051 40991
KUIPER-00030            
1 63743U 25088V   26024.47951439 -.00002814  00000+0 -33911-3 0  9998
2 63743  51.9036 306.0384 0013057 284.6232  75.3282 14.79957759 41089
KUIPER-00031            
1 63744U 25088W   26024.01961435  .00009645  00000+0  12844-2 0  9994
2 63744  51.9004 294.1229 0003044 359.3935   0.7024 14.80193547 40922
KUIPER-00032            
1 63745U 25088X   26022.99749467  .00015766  00000+0  46663-3 0  9997
2 63745  51.8699 244.7621 0002753 327.4896  32.5920 15.35051782 42528
KUIPER-00033            
1 63746U 25088Y   26024.12422074 -.00013322  00000+0 -17223-2 0  9994
2 63746  51.9068 323.6698 0001032 292.3471  67.7382 14.79925076 41006
KUIPER-00034            
1 63747U 25088Z   26024.02951958 -.00007836  00000+0 -10010-2 0  9992
2 63747  51.9004 286.6063 0001275  81.2411 278.8696 14.79891792 41199
